[{"OBJECT_NAME":"STARLINK-35259","OBJECT_ID":"2025-243W","EPOCH":"2026-03-09T17:19:29.595648","MEAN_MOTION":15.3019596,"ECCENTRICITY":8.829e-5,"INCLINATION":53.1567,"RA_OF_ASC_NODE":245.4605,"ARG_OF_PERICENTER":71.9522,"MEAN_ANOMALY":288.1575,"EPHEMERIS_TYPE":0,"CLASSIFICATION_TYPE":"U","NORAD_CAT_ID":66198,"ELEMENT_SET_NO":999,"REV_AT_EPOCH":2065,"BSTAR":0.0012245837,"MEAN_MOTION_DOT":0.00036081,"MEAN_MOTION_DDOT":0},{"OBJECT_NAME":"UNKNOWN","OBJECT_ID":"","EPOCH":"2026-02-15T06:28:00.562080","MEAN_MOTION":14.53453444,"ECCENTRICITY":0.0369408,"INCLINATION":66.0766,"RA_OF_ASC_NODE":348.0426,"ARG_OF_PERICENTER":102.1486,"MEAN_ANOMALY":262.125,"EPHEMERIS_TYPE":0,"CLASSIFICATION_TYPE":"U","NORAD_CAT_ID":81947,"ELEMENT_SET_NO":999,"REV_AT_EPOCH":64039,"BSTAR":0.00046514,"MEAN_MOTION_DOT":4.726e-5,"MEAN_MOTION_DDOT":0}]
